TDRS 3                  
1 19548U 88091B   24052.37609889 -.00000302  00000+0  00000+0 0  9990
2 19548  13.2522 346.7441 0041266 339.4695 270.7211  1.00263560116877
HST                     
1 20580U 90037B   24052.07226465  .00006285  00000+0  30848-3 0  9995
2 20580  28.4699  48.7327 0002703 196.5822 163.4681 15.16029186659492
TDRS 5                  
1 21639U 91054B   24052.49564144  .00000028  00000+0  00000+0 0  9998
2 21639  14.1778 359.9705 0003228 312.4670 238.5623  1.00653652119218
TDRS 6                  
1 22314U 93003B   24052.29335844 -.00000299  00000+0  00000+0 0  9997
2 22314  14.1591   3.2684 0006976 153.1156  54.0734  1.00273130113889
TDRS 7                  
1 23613U 95035B   24052.34513049 -.00000206  00000+0  00000+0 0  9996
2 23613  13.7303 354.0528 0024990  59.8404 306.0814  1.00272091104666
ISS (ZARYA)             
1 25544U 98067A   24052.67648913  .00017068  00000+0  30413-3 0  9992
2 25544  51.6402 172.7557 0001934 300.8027 194.5664 15.50210645440485
LANDSAT 7               
1 25682U 99020A   24052.49404309  .00000667  00000+0  14648-3 0  9993
2 25682  97.9023  84.7276 0001328  79.1520  30.4717 14.60475463322163
TERRA                   
1 25994U 99068A   24052.43078427  .00000737  00000+0  16441-3 0  9994
2 25994  98.0632 119.2950 0002451  40.9761  87.0434 14.59566009286136
TDRS 8                  
1 26388U 00034A   24051.65045830  .00000088  00000+0  00000+0 0  9991
2 26388  11.3524  38.1598 0004634 262.1566 276.3008  1.00278318 86688
TIMED                   
1 26998U 01055B   24052.50681942  .00002242  00000+0  23162-3 0  9999
2 26998  74.0722 134.5680 0002076 253.9310 106.1644 14.90812002204570
TDRS 9                  
1 27389U 02011A   24052.50883576  .00000049  00000+0  00000+0 0  9999
2 27389  10.3510  54.9199 0001212 110.8524  41.2085  0.98980217 81895
AQUA                    
1 27424U 02022A   24052.52349528  .00001676  00000+0  36787-3 0  9999
2 27424  98.3175   1.5858 0001995  93.2642 332.1039 14.58896229159708
TDRS 10                 
1 27566U 02055A   24051.72129472  .00000079  00000+0  00000+0 0  9998
2 27566   9.3410  46.2035 0006582 307.3329 245.2284  1.00266977 77732
SORCE                   
1 27651U 03004A   24051.62389045  .00004319  00000+0  40984-3 0  9991
2 27651  39.9948  24.5988 0018854 127.3231 232.9281 14.94001300144655
AURA                    
1 28376U 04026A   24051.91376769  .00001661  00000+0  37011-3 0  9996
2 28376  98.2391 357.6844 0002072  79.2680 280.8752 14.58192710 42589
SWIFT                   
1 28485U 04047A   24052.01635557  .00011270  00000+0  54581-3 0  9993
2 28485  20.5565 297.9160 0008350 206.9026 153.0977 15.15841967 56502
THEMIS A                
1 30580U 07004A   24052.09309660 -.00000284  00000+0  11414+0 0  9997
2 30580  10.7677 274.6879 8320424 298.4728 331.0004  0.87832871 58527
THEMIS D                
1 30797U 07004D   24052.15439569 -.00000303  00000+0  00000+0 0  9997
2 30797   6.9824 268.1437 8302564 308.6410 337.7196  0.87833911 58041
THEMIS E                
1 30798U 07004E   24052.12992066 -.00000267  00000+0  00000+0 0  9990
2 30798   8.3239 287.0772 8300770 291.1987 346.3364  0.87831598 58460
AIM                     
1 31304U 07015A   24052.44838041  .00054570  00000+0  10566-2 0  9999
2 31304  97.8947  16.1401 0005301  69.1829 290.9987 15.47536404924978
FGRST (GLAST)           
1 33053U 08029A   24051.89717948  .00004560  00000+0  21655-3 0  9994
2 33053  25.5824 294.1723 0010834 104.0792 256.0949 15.15749743866752
WISE                    
1 36119U 09071A   24051.82551969  .00033292  00000+0  52192-3 0  9994
2 36119  97.1671  87.7545 0002045 139.9557 220.1848 15.53635518789987
TDRS 11                 
1 39070U 13004A   24051.86393213  .00000071  00000+0  00000+0 0  9990
2 39070   2.7044   7.3695 0004305  31.2913 248.2385  1.00276029 38199
TDRS 12                 
1 39504U 14004A   24051.89049814 -.00000277  00000+0  00000+0 0  9990
2 39504   3.5533   0.5382 0002411 240.0768 189.3851  1.00273034 35783
GPM-CORE                
1 39574U 14009C   24052.19137126  .00010426  00000+0  22874-3 0  9993
2 39574  64.9868 264.6475 0008732 275.9923  84.0222 15.44468948567001
MMS 1                   
1 40482U 15011A   24052.50001157 -.00002966  00000+0  00000+0 0  9990
2 40482  40.7581  21.7114 9152058 137.5595  85.0030  0.28384087 15042
MMS 2                   
1 40483U 15011B   24052.58334491 -.00002954  00000+0  00000+0 0  9996
2 40483  40.7597  21.7201 9151302 137.5499  93.5309  0.28384226 15027
MMS 3                   
1 40484U 15011C   24052.58334491 -.00002954  00000+0  00000+0 0  9997
2 40484  40.7540  21.7194 9150709 137.5541  93.5227  0.28384266 15028
MMS 4                   
1 40485U 15011D   24052.58334491 -.00002954  00000+0  00000+0 0  9998
2 40485  40.7532  21.7155 9151322 137.5516  93.5419  0.28384272 15021
TDRS 13                 
1 42915U 17047A   24051.89632866 -.00000104  00000+0  00000+0 0  9994
2 42915   3.7390 342.2474 0012903 107.0074  12.1968  1.00272285 23857
JPSS-1                  
1 43013U 17073A   24052.42609706  .00000148  00000+0  90890-4 0  9998
2 43013  98.7383 352.1810 0001533 102.2609 257.8739 14.19549122324337
